{
  "constellation": "oneweb",
  "timestamp": "2025-07-21T05:06:13.717346+00:00",
  "satellite_count": 651,
  "data": [
    {
      "satellite_name": "ONEWEB-0048",
      "catalog_number": 45153,
      "epoch_year": 2025,
      "epoch_day": 201.44715081,
      "first_derivative": -6.37e-06,
      "second_derivative": 0.0,
      "drag_term": -0.00186,
      "inclination": 87.8817,
      "right_ascension": 102.4592,
      "eccentricity": 0.0001849,
      "argument_of_perigee": 79.2211,
      "mean_anomaly": 280.9124,
      "mean_motion": 13.10373564,
      "revolution_number": 26436,
      "line1": "1 45153U 20008Y   25201.44715081 -.00000637  00000+0 -18600-2 0  9992",
      "line2": "2 45153  87.8817 102.4592 0001849  79.2211 280.9124 13.10373564264366",
      "last_updated": "2025-07-21T05:06:13.713793+00:00",
      "constellation": "oneweb"
    },
    {
      "satellite_name": "ONEWEB-0049",
      "catalog_number": 45154,
      "epoch_year": 2025,
      "epoch_day": 201.29692566,
      "first_derivative": -5.19e-06,
      "second_derivative": 0.0,
      "drag_term": -0.0015221000000000002,
      "inclination": 87.8815,
      "right_ascension": 102.4824,
      "eccentricity": 0.0001364,
      "argument_of_perigee": 79.1073,
      "mean_anomaly": 281.0207,
      "mean_motion": 13.10373935,
      "revolution_number": 26456,
      "line1": "1 45154U 20008Z   25201.29692566 -.00000519  00000+0 -15221-2 0  9993",
      "line2": "2 45154  87.8815 102.4824 0001364  79.1073 281.0207 13.10373935264568",
      "last_updated": "2025-07-21T05:06:13.713795+00:00",
      "constellation": "oneweb"
    },
    {
      "satellite_name": "ONEWEB-0051",
      "catalog_number": 45155,
      "epoch_year": 2025,
      "epoch_day": 201.42358516,
      "first_derivative": -1e-07,
      "second_derivative": 0.0,
      "drag_term": -6.4755e-05,
      "inclination": 87.8823,
      "right_ascension": 87.2038,
      "eccentricity": 0.0001863,
      "argument_of_perigee": 75.6655,
      "mean_anomaly": 284.468,
      "mean_motion": 13.1141907,
      "revolution_number": 26760,
      "line1": "1 45155U 20008AA  25201.42358516 -.00000010  00000+0 -64755-4 0  9997",
      "line2": "2 45155  87.8823  87.2038 0001863  75.6655 284.4680 13.11419070267608",
      "last_updated": "2025-07-21T05:06:13.713797+00:00",
      "constellation": "oneweb"
    },
    {
      "satellite_name": "ONEWEB-0052",
      "catalog_number": 45156,
      "epoch_year": 2025,
      "epoch_day": 201.21557624,
      "first_derivative": -5.89e-06,
      "second_derivative": 0.0,
      "drag_term": -0.0017234,
      "inclination": 87.8831,
      "right_ascension": 102.4426,
      "eccentricity": 0.0001359,
      "argument_of_perigee": 86.013,
      "mean_anomaly": 274.1153,
      "mean_motion": 13.10372836,
      "revolution_number": 26446,
      "line1": "1 45156U 20008AB  25201.21557624 -.00000589  00000+0 -17234-2 0  9995",
      "line2": "2 45156  87.8831 102.4426 0001359  86.0130 274.1153 13.10372836264462",
      "last_updated": "2025-07-21T05:06:13.713800+00:00",
      "constellation": "oneweb"
    },
    {
      "satellite_name": "ONEWEB-0053",
      "catalog_number": 45157,
      "epoch_year": 2025,
      "epoch_day": 201.42724081,
      "first_derivative": 3e-08,
      "second_derivative": 0.0,
      "drag_term": -2.7799000000000003e-05,
      "inclination": 87.8811,
      "right_ascension": 102.4601,
      "eccentricity": 0.0002101,
      "argument_of_perigee": 85.6151,
      "mean_anomaly": 274.5216,
      "mean_motion": 13.10370587,
      "revolution_number": 26446,
      "line1": "1 45157U 20008AC  25201.42724081  .00000003  00000+0 -27799-4 0  9991",
      "line2": "2 45157  87.8811 102.4601 0002101  85.6151 274.5216 13.10370587264465",
      "last_updated": "2025-07-21T05:06:13.713802+00:00",
      "constellation": "oneweb"
    },
    {
      "satellite_name": "ONEWEB-0054",
      "catalog_number": 45158,
      "epoch_year": 2025,
      "epoch_day": 201.46209967,
      "first_derivative": -1.84e-06,
      "second_derivative": 0.0,
      "drag_term": -0.00056245,
      "inclination": 87.8819,
      "right_ascension": 102.4273,
      "eccentricity": 0.0001826,
      "argument_of_perigee": 75.285,
      "mean_anomaly": 284.848,
      "mean_motion": 13.1037577,
      "revolution_number": 26458,
      "line1": "1 45158U 20008AD  25201.46209967 -.00000184  00000+0 -56245-3 0  9995",
      "line2": "2 45158  87.8819 102.4273 0001826  75.2850 284.8480 13.10375770264582",
      "last_updated": "2025-07-21T05:06:13.713804+00:00",
      "constellation": "oneweb"
    },
    {
      "satellite_name": "ONEWEB-0056",
      "catalog_number": 45159,
      "epoch_year": 2025,
      "epoch_day": 201.44298383,
      "first_derivative": -5.96e-06,
      "second_derivative": 0.0,
      "drag_term": -0.0017452000000000001,
      "inclination": 87.8815,
      "right_ascension": 102.4282,
      "eccentricity": 0.0001825,
      "argument_of_perigee": 78.0979,
      "mean_anomaly": 282.0353,
      "mean_motion": 13.10371145,
      "revolution_number": 26473,
      "line1": "1 45159U 20008AE  25201.44298383 -.00000596  00000+0 -17452-2 0  9997",
      "line2": "2 45159  87.8815 102.4282 0001825  78.0979 282.0353 13.10371145264739",
      "last_updated": "2025-07-21T05:06:13.713806+00:00",
      "constellation": "oneweb"
    },
    {
      "satellite_name": "ONEWEB-0057",
      "catalog_number": 45160,
      "epoch_year": 2025,
      "epoch_day": 201.22139952,
      "first_derivative": -4.95e-06,
      "second_derivative": 0.0,
      "drag_term": -0.0014545,
      "inclination": 87.8818,
      "right_ascension": 102.4858,
      "eccentricity": 0.0001761,
      "argument_of_perigee": 81.816,
      "mean_anomaly": 278.3167,
      "mean_motion": 13.10374871,
      "revolution_number": 26487,
      "line1": "1 45160U 20008AF  25201.22139952 -.00000495  00000+0 -14545-2 0  9999",
      "line2": "2 45160  87.8818 102.4858 0001761  81.8160 278.3167 13.10374871264871",
      "last_updated": "2025-07-21T05:06:13.713808+00:00",
      "constellation": "oneweb"
    },
    {
      "satellite_name": "ONEWEB-0058",
      "catalog_number": 45161,
      "epoch_year": 2025,
      "epoch_day": 201.43733108,
      "first_derivative": -4.55e-06,
      "second_derivative": 0.0,
      "drag_term": -0.0013400999999999999,
      "inclination": 87.8808,
      "right_ascension": 102.4544,
      "eccentricity": 0.0002022,
      "argument_of_perigee": 77.1282,
      "mean_anomaly": 283.0072,
      "mean_motion": 13.10371267,
      "revolution_number": 26497,
      "line1": "1 45161U 20008AG  25201.43733108 -.00000455  00000+0 -13401-2 0  9992",
      "line2": "2 45161  87.8808 102.4544 0002022  77.1282 283.0072 13.10371267264972",
      "last_updated": "2025-07-21T05:06:13.713811+00:00",
      "constellation": "oneweb"
    },
    {
      "satellite_name": "ONEWEB-0059",
      "catalog_number": 45162,
      "epoch_year": 2025,
      "epoch_day": 201.43387489,
      "first_derivative": -3.44e-06,
      "second_derivative": 0.0,
      "drag_term": -0.0010211,
      "inclination": 87.8814,
      "right_ascension": 102.4534,
      "eccentricity": 0.0001978,
      "argument_of_perigee": 76.1224,
      "mean_anomaly": 284.0123,
      "mean_motion": 13.10371116,
      "revolution_number": 26487,
      "line1": "1 45162U 20008AH  25201.43387489 -.00000344  00000+0 -10211-2 0  9993",
      "line2": "2 45162  87.8814 102.4534 0001978  76.1224 284.0123 13.10371116264873",
      "last_updated": "2025-07-21T05:06:13.713813+00:00",
      "constellation": "oneweb"
    },
    {
      "satellite_name": "ONEWEB-0062",
      "catalog_number": 45163,
      "epoch_year": 2025,
      "epoch_day": 201.4596027,
      "first_derivative": -3.04e-06,
      "second_derivative": 0.0,
      "drag_term": -0.00090821,
      "inclination": 87.8817,
      "right_ascension": 102.428,
      "eccentricity": 0.0001984,
      "argument_of_perigee": 66.4033,
      "mean_anomaly": 293.7302,
      "mean_motion": 13.1037646,
      "revolution_number": 26474,
      "line1": "1 45163U 20008AJ  25201.45960270 -.00000304  00000+0 -90821-3 0  9993",
      "line2": "2 45163  87.8817 102.4280 0001984  66.4033 293.7302 13.10376460264741",
      "last_updated": "2025-07-21T05:06:13.713815+00:00",
      "constellation": "oneweb"
    },
    {
      "satellite_name": "ONEWEB-0065",
      "catalog_number": 45164,
      "epoch_year": 2025,
      "epoch_day": 201.28619515,
      "first_derivative": -5.43e-06,
      "second_derivative": 0.0,
      "drag_term": -0.0015925000000000002,
      "inclination": 87.8818,
      "right_ascension": 102.4863,
      "eccentricity": 0.0001426,
      "argument_of_perigee": 82.8771,
      "mean_anomaly": 277.2519,
      "mean_motion": 13.10352067,
      "revolution_number": 26441,
      "line1": "1 45164U 20008AK  25201.28619515 -.00000543  00000+0 -15925-2 0  9994",
      "line2": "2 45164  87.8818 102.4863 0001426  82.8771 277.2519 13.10352067264410",
      "last_updated": "2025-07-21T05:06:13.713818+00:00",
      "constellation": "oneweb"
    },
    {
      "satellite_name": "ONEWEB-0066",
      "catalog_number": 45424,
      "epoch_year": 2025,
      "epoch_day": 201.4083258,
      "first_derivative": -4.45e-06,
      "second_derivative": 0.0,
      "drag_term": -0.0012909000000000002,
      "inclination": 87.8823,
      "right_ascension": 87.1913,
      "eccentricity": 0.0002099,
      "argument_of_perigee": 86.11,
      "mean_anomaly": 274.0267,
      "mean_motion": 13.1141724,
      "revolution_number": 25919,
      "line1": "1 45424U 20020A   25201.40832580 -.00000445  00000+0 -12909-2 0  9990",
      "line2": "2 45424  87.8823  87.1913 0002099  86.1100 274.0267 13.11417240259190",
      "last_updated": "2025-07-21T05:06:13.713820+00:00",
      "constellation": "oneweb"
    }
  ]
}